{
  "type": "FeatureCollection",
  "features": [
    {
      "type": "Feature",
      "properties": {
        "norad_id": 43823,
        "name": "GEO-KOMPSAT-2A",
        "group": "weather",
        "lat": -0.01496736020664311,
        "lon": 69.97771729515978,
        "alt_km": 35787.00496146237,
        "timestamp": "2025-12-09T14:52:25.808392+00:00",
        "meta_object_name": "GEO-KOMPSAT-2A",
        "meta_object_id": "2018-100A",
        "meta_epoch": "2025-12-08T09:04:40.751616",
        "meta_mean_motion": 1.00270893,
        "meta_eccentricity": 1.774e-05,
        "meta_inclination": 0.0576,
        "meta_ra_of_asc_node": 113.8278,
        "meta_arg_of_pericenter": 87.1447,
        "meta_mean_anomaly": 140.8536,
        "meta_ephemeris_type": 0,
        "meta_classification_type": "U",
        "meta_norad_cat_id": 43823,
        "meta_element_set_no": 999,
        "meta_rev_at_epoch": 2571,
        "meta_bstar": 0,
        "meta_mean_motion_dot": -3.41e-06,
        "meta_mean_motion_ddot": 0,
        "tle_line1": "1 43823U 18100A   25342.37824944 -.00000341  00000+0  00000+0 0  9994",
        "tle_line2": "2 43823   0.0576 113.8278 0000177  87.1447 140.8536  1.00270893 25718"
      },
      "geometry": {
        "type": "Point",
        "coordinates": [
          69.97771729515978,
          -0.01496736020664311
        ]
      }
    },
    {
      "type": "Feature",
      "properties": {
        "norad_id": 44387,
        "name": "METEOR-M2 2",
        "group": "weather",
        "lat": -45.760826791722565,
        "lon": 134.05336038899267,
        "alt_km": 817.3549123306957,
        "timestamp": "2025-12-09T14:52:25.808404+00:00",
        "meta_object_name": "METEOR-M2 2",
        "meta_object_id": "2019-038A",
        "meta_epoch": "2025-12-09T07:04:12.673632",
        "meta_mean_motion": 14.24289677,
        "meta_eccentricity": 0.00010946,
        "meta_inclination": 98.8969,
        "meta_ra_of_asc_node": 322.9809,
        "meta_arg_of_pericenter": 154.486,
        "meta_mean_anomaly": 205.6372,
        "meta_ephemeris_type": 0,
        "meta_classification_type": "U",
        "meta_norad_cat_id": 44387,
        "meta_element_set_no": 999,
        "meta_rev_at_epoch": 33426,
        "meta_bstar": 0.00022722078,
        "meta_mean_motion_dot": 4.79e-06,
        "meta_mean_motion_ddot": 0,
        "tle_line1": "1 44387U 19038A   25343.29459113  .00000479  00000+0  22722-3 0  9995",
        "tle_line2": "2 44387  98.8969 322.9809 0001094 154.4860 205.6372 14.24289677334265"
      },
      "geometry": {
        "type": "Point",
        "coordinates": [
          134.05336038899267,
          -45.760826791722565
        ]
      }
    },
    {
      "type": "Feature",
      "properties": {
        "norad_id": 47719,
        "name": "ARKTIKA-M 1",
        "group": "weather",
        "lat": 33.8173753980393,
        "lon": 104.24928993106262,
        "alt_km": 17233.83419313215,
        "timestamp": "2025-12-09T14:52:25.808425+00:00",
        "meta_object_name": "ARKTIKA-M 1",
        "meta_object_id": "2021-016A",
        "meta_epoch": "2025-12-09T02:05:46.689216",
        "meta_mean_motion": 2.00743922,
        "meta_eccentricity": 0.7204271,
        "meta_inclination": 63.1782,
        "meta_ra_of_asc_node": 84.5148,
        "meta_arg_of_pericenter": 269.1088,
        "meta_mean_anomaly": 15.6099,
        "meta_ephemeris_type": 0,
        "meta_classification_type": "U",
        "meta_norad_cat_id": 47719,
        "meta_element_set_no": 999,
        "meta_rev_at_epoch": 3497,
        "meta_bstar": 0,
        "meta_mean_motion_dot": -3.4e-07,
        "meta_mean_motion_ddot": 0,
        "tle_line1": "1 47719U 21016A   25343.08734594 -.00000034  00000+0  00000+0 0  9991",
        "tle_line2": "2 47719  63.1782  84.5148 7204271 269.1088  15.6099  2.00743922 34976"
      },
      "geometry": {
        "type": "Point",
        "coordinates": [
          104.24928993106262,
          33.8173753980393
        ]
      }
    },
    {
      "type": "Feature",
      "properties": {
        "norad_id": 49008,
        "name": "FENGYUN 3E",
        "group": "weather",
        "lat": -54.30395097293447,
        "lon": 151.80351776153603,
        "alt_km": 832.5077332197852,
        "timestamp": "2025-12-09T14:52:25.808437+00:00",
        "meta_object_name": "FENGYUN 3E",
        "meta_object_id": "2021-062A",
        "meta_epoch": "2025-12-09T07:00:16.295328",
        "meta_mean_motion": 14.19878924,
        "meta_eccentricity": 6.152e-05,
        "meta_inclination": 98.7472,
        "meta_ra_of_asc_node": 343.8536,
        "meta_arg_of_pericenter": 294.4656,
        "meta_mean_anomaly": 65.6456,
        "meta_ephemeris_type": 0,
        "meta_classification_type": "U",
        "meta_norad_cat_id": 49008,
        "meta_element_set_no": 999,
        "meta_rev_at_epoch": 22963,
        "meta_bstar": 6.2804901e-05,
        "meta_mean_motion_dot": 8.9e-07,
        "meta_mean_motion_ddot": 0,
        "tle_line1": "1 49008U 21062A   25343.29185527  .00000089  00000+0  62805-4 0  9999",
        "tle_line2": "2 49008  98.7472 343.8536 0000615 294.4656  65.6456 14.19878924229637"
      },
      "geometry": {
        "type": "Point",
        "coordinates": [
          151.80351776153603,
          -54.30395097293447
        ]
      }
    },
    {
      "type": "Feature",
      "properties": {
        "norad_id": 51850,
        "name": "GOES 18",
        "group": "weather",
        "lat": 0.002315709824797895,
        "lon": 164.7048867657279,
        "alt_km": 35788.41457387915,
        "timestamp": "2025-12-09T14:52:25.808449+00:00",
        "meta_object_name": "GOES 18",
        "meta_object_id": "2022-021A",
        "meta_epoch": "2025-12-09T07:08:15.106848",
        "meta_mean_motion": 1.00271015,
        "meta_eccentricity": 7.148e-05,
        "meta_inclination": 0.0159,
        "meta_ra_of_asc_node": 98.7289,
        "meta_arg_of_pericenter": 201.683,
        "meta_mean_anomaly": 107.9405,
        "meta_ephemeris_type": 0,
        "meta_classification_type": "U",
        "meta_norad_cat_id": 51850,
        "meta_element_set_no": 999,
        "meta_rev_at_epoch": 468,
        "meta_bstar": 0,
        "meta_mean_motion_dot": 9.9e-07,
        "meta_mean_motion_ddot": 0,
        "tle_line1": "1 51850U 22021A   25343.29739707  .00000099  00000+0  00000+0 0  9993",
        "tle_line2": "2 51850   0.0159  98.7289 0000714 201.6830 107.9405  1.00271015  4682"
      },
      "geometry": {
        "type": "Point",
        "coordinates": [
          164.7048867657279,
          0.002315709824797895
        ]
      }
    },
    {
      "type": "Feature",
      "properties": {
        "norad_id": 54234,
        "name": "NOAA 21 (JPSS-2)",
        "group": "weather",
        "lat": -64.1985505564683,
        "lon": 81.39983066290512,
        "alt_km": 835.7198690523082,
        "timestamp": "2025-12-09T14:52:25.808460+00:00",
        "meta_object_name": "NOAA 21 (JPSS-2)",
        "meta_object_id": "2022-150A",
        "meta_epoch": "2025-12-09T06:57:13.679424",
        "meta_mean_motion": 14.19522877,
        "meta_eccentricity": 0.00023548,
        "meta_inclination": 98.7458,
        "meta_ra_of_asc_node": 279.6411,
        "meta_arg_of_pericenter": 44.8106,
        "meta_mean_anomaly": 315.326,
        "meta_ephemeris_type": 0,
        "meta_classification_type": "U",
        "meta_norad_cat_id": 54234,
        "meta_element_set_no": 999,
        "meta_rev_at_epoch": 15960,
        "meta_bstar": 0.00012525304,
        "meta_mean_motion_dot": 2.2e-06,
        "meta_mean_motion_ddot": 0,
        "tle_line1": "1 54234U 22150A   25343.28974166  .00000220  00000+0  12525-3 0  9999",
        "tle_line2": "2 54234  98.7458 279.6411 0002354  44.8106 315.3260 14.19522877159605"
      },
      "geometry": {
        "type": "Point",
        "coordinates": [
          81.39983066290512,
          -64.1985505564683
        ]
      }
    },
    {
      "type": "Feature",
      "properties": {
        "norad_id": 54743,
        "name": "METEOSAT-12 (MTG-I1)",
        "group": "weather",
        "lat": -0.7401018392576206,
        "lon": -58.4916813827768,
        "alt_km": 35780.9949099509,
        "timestamp": "2025-12-09T14:52:25.808472+00:00",
        "meta_object_name": "METEOSAT-12 (MTG-I1)",
        "meta_object_id": "2022-170C",
        "meta_epoch": "2025-12-09T05:00:43.286112",
        "meta_mean_motion": 1.00275152,
        "meta_eccentricity": 0.00014487,
        "meta_inclination": 0.7264,
        "meta_ra_of_asc_node": 31.0471,
        "meta_arg_of_pericenter": 223.9483,
        "meta_mean_anomaly": 258.1662,
        "meta_ephemeris_type": 0,
        "meta_classification_type": "U",
        "meta_norad_cat_id": 54743,
        "meta_element_set_no": 999,
        "meta_rev_at_epoch": 1107,
        "meta_bstar": 0,
        "meta_mean_motion_dot": -4e-08,
        "meta_mean_motion_ddot": 0,
        "tle_line1": "1 54743U 22170C   25343.20883433 -.00000004  00000+0  00000+0 0  9996",
        "tle_line2": "2 54743   0.7264  31.0471 0001448 223.9483 258.1662  1.00275152 11070"
      },
      "geometry": {
        "type": "Point",
        "coordinates": [
          -58.4916813827768,
          -0.7401018392576206
        ]
      }
    }
  ]
}